NORAD_CAT_ID,OBJECT_NAME,OBJECT_TYPE,EPOCH,MEAN_MOTION,ECCENTRICITY,INCLINATION,RA_OF_ASC_NODE,ARG_OF_PERICENTER,MEAN_ANOMALY,BSTAR,MEAN_MOTION_DOT,MEAN_MOTION_DDOT,TLE_LINE0,TLE_LINE1,TLE_LINE2,SEMIMAJOR_AXIS,PERIOD,APOGEE,PERIGEE,DECAYED
53294.0,STARLINK-4146,PAYLOAD,2023-04-01 21:07:02,15.08831385,0.0001289,53.2169,309.9904,78.2669,281.8467,0.00040543,6.169e-05,0.0,0 STARLINK-4146,1 53294U 22086BE  23091.87989545  .00006169  00000-0  40543-3 0  9992,2 53294  53.2169 309.9904 0001289  78.2669 281.8467 15.08831385 39418,6917.907,95.438,540.663,538.88,0.0
53294.0,STARLINK-4146,PAYLOAD,2023-04-02 14:36:17,15.08846581,0.0001217,53.2166,306.7192,73.5898,286.5228,0.00082278,0.00012833,0.0,0 STARLINK-4146,1 53294U 22086BE  23092.60853659  .00012833  00000-0  82278-3 0  9996,2 53294  53.2166 306.7192 0001217  73.5898 286.5228 15.08846581 39525,6917.86,95.437,540.567,538.883,0.0
53294.0,STARLINK-4146,PAYLOAD,2023-04-02 20:57:49,15.08858338,0.0001215,53.2164,305.5292,77.7202,282.3926,0.00094843,0.00014846,0.0,0 STARLINK-4146,1 53294U 22086BE  23092.87349275  .00014846  00000-0  94843-3 0  9996,2 53294  53.2164 305.5292 0001215  77.7202 282.3926 15.08858338 39560,6917.824,95.436,540.53,538.849,0.0
53294.0,STARLINK-4146,PAYLOAD,2023-04-03 00:08:35,15.08861567,0.0001145,53.2156,304.9334,74.1185,285.9933,0.00087727,0.0001371,0.0,0 STARLINK-4146,1 53294U 22086BE  23093.00597058  .00013710  00000-0  87727-3 0  9998,2 53294  53.2156 304.9334 0001145  74.1185 285.9933 15.08861567 39389,6917.814,95.436,540.472,538.887,0.0
53294.0,STARLINK-4146,PAYLOAD,2023-04-03 14:27:04,15.08846369,0.0001197,53.2147,302.2567,67.6198,292.4921,0.00029248,4.371e-05,0.0,0 STARLINK-4146,1 53294U 22086BE  23093.60213404  .00004371  00000-0  29248-3 0  9991,2 53294  53.2147 302.2567 0001197  67.6198 292.4921 15.08846369 39671,6917.861,95.437,540.554,538.898,0.0
53294.0,STARLINK-4146,PAYLOAD,2023-04-03 20:48:36,15.08840364,3.63e-05,53.216,301.0692,54.6281,305.4745,0.00029056,4.34e-05,0.0,0 STARLINK-4146,1 53294U 22086BE  23093.86709437  .00004340  00000-0  29056-3 0  9998,2 53294  53.2160 301.0692 0000363  54.6281 305.4745 15.08840364 39516,6917.879,95.438,539.995,539.493,0.0
53294.0,STARLINK-4146,PAYLOAD,2023-04-04 12:42:28,15.08846598,0.0001142,53.2156,298.095,91.399,268.7133,0.00061261,9.477e-05,0.0,0 STARLINK-4146,1 53294U 22086BE  23094.52949474  .00009477  00000-0  61261-3 0  9999,2 53294  53.2156 298.0950 0001142  91.3990 268.7133 15.08846598 39814,6917.86,95.437,540.515,538.935,0.0
53294.0,STARLINK-4146,PAYLOAD,2023-04-05 12:33:15,15.08846826,0.0001081,53.2148,293.6331,84.117,275.9946,0.00027095,4.028e-05,0.0,0 STARLINK-4146,1 53294U 22086BE  23095.52309281  .00004028  00000-0  27095-3 0  9990,2 53294  53.2148 293.6331 0001081  84.1170 275.9946 15.08846826 39761,6917.86,95.437,540.472,538.977,0.0
53294.0,STARLINK-4146,PAYLOAD,2023-04-05 20:30:10,15.08844493,0.0001094,53.2138,292.1449,78.933,281.1785,0.00015649,2.204e-05,0.0,0 STARLINK-4146,1 53294U 22086BE  23095.85429297  .00002204  00000-0  15649-3 0  9992,2 53294  53.2138 292.1449 0001094  78.9330 281.1785 15.08844493 40015,6917.867,95.437,540.488,538.975,0.0
53294.0,STARLINK-4146,PAYLOAD,2023-04-06 06:02:29,15.08841395,0.0001048,53.2129,290.3611,87.3558,272.7555,6.2361e-05,7.05e-06,0.0,0 STARLINK-4146,1 53294U 22086BE  23096.25173302  .00000705  00000-0  62361-4 0  9998,2 53294  53.2129 290.3611 0001048  87.3558 272.7555 15.08841395 39872,6917.876,95.437,540.466,539.016,0.0
53294.0,STARLINK-4146,PAYLOAD,2023-04-07 12:14:49,15.08842317,0.0001478,53.2131,284.7097,81.781,278.335,0.00013003,1.782e-05,0.0,0 STARLINK-4146,1 53294U 22086BE  23097.51029578  .00001782  00000-0  13003-3 0  9997,2 53294  53.2131 284.7097 0001478  81.7810 278.3350 15.08842317 40069,6917.873,95.437,540.761,538.716,0.0
53294.0,STARLINK-4146,PAYLOAD,2023-04-08 12:05:36,15.08840236,0.0001288,53.2137,280.2517,72.9306,287.1827,0.00014111,1.959e-05,0.0,0 STARLINK-4146,1 53294U 22086BE  23098.50389711  .00001959  00000-0  14111-3 0  9992,2 53294  53.2137 280.2517 0001288  72.9306 287.1827 15.08840236 40418,6917.88,95.438,540.636,538.854,0.0
53294.0,STARLINK-4146,PAYLOAD,2023-04-08 18:27:08,15.0885237,0.0001049,53.2132,279.0609,71.2186,288.892,-0.00016874,-2.973e-05,0.0,0 STARLINK-4146,1 53294U 22086BE  23098.76884782 -.00002973  00000-0 -16874-3 0  9995,2 53294  53.2132 279.0609 0001049  71.2186 288.8920 15.08852370 40250,6917.843,95.437,540.433,538.982,0.0
53294.0,STARLINK-4146,PAYLOAD,2023-04-09 05:34:51,15.08842984,0.0001272,53.2136,276.9792,79.1933,280.9202,0.00016938,2.409e-05,0.0,0 STARLINK-4146,1 53294U 22086BE  23099.23253606  .00002409  00000-0  16938-3 0  9996,2 53294  53.2136 276.9792 0001272  79.1933 280.9202 15.08842984 40322,6917.871,95.437,540.616,538.856,0.0
53294.0,STARLINK-4146,PAYLOAD,2023-04-09 11:56:23,15.08840843,0.0001287,53.2137,275.79,81.5348,278.579,0.00014818,2.071e-05,0.0,0 STARLINK-4146,1 53294U 22086BE  23099.49749745  .00002071  00000-0  14818-3 0  9998,2 53294  53.2137 275.7900 0001287  81.5348 278.5790 15.08840843 40567,6917.878,95.438,540.633,538.852,0.0
53294.0,STARLINK-4146,PAYLOAD,2023-04-09 18:17:56,15.08844302,0.0001214,53.2137,274.6004,85.4537,274.6594,0.0001809,2.593e-05,0.0,0 STARLINK-4146,1 53294U 22086BE  23099.76245546  .00002593  00000-0  18090-3 0  9993,2 53294  53.2137 274.6004 0001214  85.4537 274.6594 15.08844302 40601,6917.867,95.437,540.572,538.892,0.0
53294.0,STARLINK-4146,PAYLOAD,2023-04-10 13:22:33,15.08840426,0.0001202,53.2146,271.032,88.1167,271.9962,7.854e-05,9.62e-06,0.0,0 STARLINK-4146,1 53294U 22086BE  23100.55733700  .00000962  00000-0  78540-4 0  9992,2 53294  53.2146 271.0320 0001202  88.1167 271.9962 15.08840426 40522,6917.879,95.438,540.576,538.913,0.0
53294.0,STARLINK-4146,PAYLOAD,2023-04-10 21:19:29,15.08847743,0.000134,53.2143,269.5453,89.6744,270.4401,0.00016851,2.395e-05,0.0,0 STARLINK-4146,1 53294U 22086BE  23100.88853264  .00002395  00000-0  16851-3 0  9994,2 53294  53.2143 269.5453 0001340  89.6744 270.4401 15.08847743 40776,6917.857,95.437,540.649,538.795,0.0
53294.0,STARLINK-4146,PAYLOAD,2023-04-11 03:41:01,15.08850764,0.0001286,53.215,268.3557,89.28,270.8339,0.00019353,2.794e-05,0.0,0 STARLINK-4146,1 53294U 22086BE  23101.15348992  .00002794  00000-0  19353-3 0  9995,2 53294  53.2150 268.3557 0001286  89.2800 270.8339 15.08850764 40618,6917.847,95.437,540.602,538.823,0.0
53294.0,STARLINK-4146,PAYLOAD,2023-04-11 11:37:57,15.08835831,0.0001179,53.2155,266.869,96.3571,263.7555,-1.3277e-05,-4.99e-06,0.0,0 STARLINK-4146,1 53294U 22086BE  23101.48469762 -.00000499  00000-0 -13277-4 0  9992,2 53294  53.2155 266.8690 0001179  96.3571 263.7555 15.08835831 40663,6917.893,95.438,540.574,538.943,0.0
53294.0,STARLINK-4146,PAYLOAD,2023-04-11 17:59:30,15.08844226,0.0001215,53.2152,265.68,93.814,266.2991,0.00016078,2.272e-05,0.0,0 STARLINK-4146,1 53294U 22086BE  23101.74965571  .00002272  00000-0  16078-3 0  9990,2 53294  53.2152 265.6800 0001215  93.8140 266.2991 15.08844226 40902,6917.867,95.437,540.573,538.892,0.0
53294.0,STARLINK-4146,PAYLOAD,2023-04-12 09:53:21,15.08839604,5.77e-05,53.216,262.7063,78.809,281.2967,0.00014922,2.088e-05,0.0,0 STARLINK-4146,1 53294U 22086BE  23102.41205824  .00002088  00000-0  14922-3 0  9994,2 53294  53.2160 262.7063 0000577  78.8090 281.2967 15.08839604 41003,6917.882,95.438,540.146,539.347,0.0
53294.0,STARLINK-4146,PAYLOAD,2023-04-13 03:22:36,15.08839057,0.000113,53.215,259.4349,87.9789,272.1332,0.00010138,1.326e-05,0.0,0 STARLINK-4146,1 53294U 22086BE  23103.14069975  .00001326  00000-0  10138-3 0  9999,2 53294  53.2150 259.4349 0001130  87.9789 272.1332 15.08839057 41113,6917.883,95.438,540.53,538.967,0.0
53294.0,STARLINK-4146,PAYLOAD,2023-04-14 03:13:23,15.08828477,9.23e-05,53.2149,254.9742,86.5527,273.5571,-0.00021782,-3.751e-05,0.0,0 STARLINK-4146,1 53294U 22086BE  23104.13429831 -.00003751  00000-0 -21782-3 0  9993,2 53294  53.2149 254.9742 0000923  86.5527 273.5571 15.08828477 41060,6917.916,95.438,540.419,539.142,0.0
53294.0,STARLINK-4146,PAYLOAD,2023-04-14 09:34:55,15.08829055,2.72e-05,53.2158,253.7845,37.9663,322.1348,-0.00022893,-3.928e-05,0.0,0 STARLINK-4146,1 53294U 22086BE  23104.39925819 -.00003928  00000-0 -22893-3 0  9998,2 53294  53.2158 253.7845 0000272  37.9663 322.1348 15.08829055 41302,6917.914,95.438,539.967,539.591,0.0
53294.0,STARLINK-4146,PAYLOAD,2023-04-14 19:07:14,15.08849786,0.000169,53.2143,252.0008,77.8447,282.2734,0.00029214,4.366e-05,0.0,0 STARLINK-4146,1 53294U 22086BE  23104.79670124  .00004366  00000-0  29214-3 0  9997,2 53294  53.2143 252.0008 0001690  77.8447 282.2734 15.08849786 41169,6917.85,95.437,540.885,538.546,0.0
53294.0,STARLINK-4146,PAYLOAD,2023-04-15 09:25:42,15.08842863,0.0001399,53.2124,249.3268,79.6573,280.4576,5.9011e-05,6.51e-06,0.0,0 STARLINK-4146,1 53294U 22086BE  23105.39285768  .00000651  00000-0  59011-4 0  9992,2 53294  53.2124 249.3268 0001399  79.6573 280.4576 15.08842863 41456,6917.872,95.437,540.704,538.769,0.0
53294.0,STARLINK-4146,PAYLOAD,2023-04-15 20:33:24,15.08850721,0.0001095,53.216,247.2412,91.3805,268.7313,0.00050281,7.726e-05,0.0,0 STARLINK-4146,1 53294U 22086BE  23105.85653287  .00007726  00000-0  50281-3 0  9997,2 53294  53.2160 247.2412 0001095  91.3805 268.7313 15.08850721 41322,6917.848,95.437,540.47,538.955,0.0
53294.0,STARLINK-4146,PAYLOAD,2023-04-16 02:54:57,15.08834357,7.03e-05,53.2155,246.0537,100.1447,259.9625,0.00012175,1.65e-05,0.0,0 STARLINK-4146,1 53294U 22086BE  23106.12149905  .00001650  00000-0  12175-3 0  9995,2 53294  53.2155 246.0537 0000703 100.1447 259.9625 15.08834357 41366,6917.898,95.438,540.249,539.276,0.0
53294.0,STARLINK-4146,PAYLOAD,2023-04-16 14:02:39,15.08842713,0.0001495,53.2139,243.9743,82.0025,278.1137,0.00010978,1.46e-05,0.0,0 STARLINK-4146,1 53294U 22086BE  23106.58517906  .00001460  00000-0  10978-3 0  9993,2 53294  53.2139 243.9743 0001495  82.0025 278.1137 15.08842713 41638,6917.872,95.437,540.771,538.703,0.0
